{"type": "FeatureCollection", "features": [{"type": "Feature", "properties": {"norad_id": 22490, "name": "SCD 1", "group": "resource", "lat": -2.4912510482392536, "lon": -159.15960430401606, "alt_km": 739.5195807085793, "timestamp": "2025-12-24T11:32:59.660134+00:00", "meta": {"OBJECT_NAME": "SCD 1", "OBJECT_ID": "1993-009B", "EPOCH": "2025-12-24T00:42:27.383040", "MEAN_MOTION": 14.46006187, "ECCENTRICITY": 0.0042181, "INCLINATION": 24.9677, "RA_OF_ASC_NODE": 208.9929, "ARG_OF_PERICENTER": 84.3054, "MEAN_ANOMALY": 73.8287, "EPHEMERIS_TYPE": 0, "CLASSIFICATION_TYPE": "U", "NORAD_CAT_ID": 22490, "ELEMENT_SET_NO": 999, "REV_AT_EPOCH": 73573, "BSTAR": 7.7315e-05, "MEAN_MOTION_DOT": 4.68e-06, "MEAN_MOTION_DDOT": 0}, "tle": {"line1": "1 22490U 93009B   25358.02948360  .00000468  00000+0  77315-4 0  9997", "line2": "2 22490  24.9677 208.9929 0042181  84.3054  73.8287 14.46006187735730"}}, "geometry": {"type": "Point", "coordinates": [-159.15960430401606, -2.4912510482392536]}}, {"type": "Feature", "properties": {"norad_id": 25397, "name": "TECHSAT 1B (GO-32)", "group": "resource", "lat": -42.42015617139984, "lon": 153.64448887206106, "alt_km": 818.3583949421136, "timestamp": "2025-12-24T11:32:59.660179+00:00", "meta": {"OBJECT_NAME": "TECHSAT 1B (GO-32)", "OBJECT_ID": "1998-043D", "EPOCH": "2025-12-23T22:42:18.147168", "MEAN_MOTION": 14.24380036, "ECCENTRICITY": 0.0001695, "INCLINATION": 98.9932, "RA_OF_ASC_NODE": 341.4173, "ARG_OF_PERICENTER": 39.0327, "MEAN_ANOMALY": 321.0973, "EPHEMERIS_TYPE": 0, "CLASSIFICATION_TYPE": "U", "NORAD_CAT_ID": 25397, "ELEMENT_SET_NO": 999, "REV_AT_EPOCH": 42638, "BSTAR": 5.343e-05, "MEAN_MOTION_DOT": 7.7e-07, "MEAN_MOTION_DDOT": 0}, "tle": {"line1": "1 25397U 98043D   25357.94604337  .00000077  00000+0  53430-4 0  9990", "line2": "2 25397  98.9932 341.4173 0001695  39.0327 321.0973 14.24380036426385"}}, "geometry": {"type": "Point", "coordinates": [153.64448887206106, -42.42015617139984]}}, {"type": "Feature", "properties": {"norad_id": 25504, "name": "SCD 2", "group": "resource", "lat": 0.7978026068818472, "lon": 71.21093004752672, "alt_km": 735.4308935470308, "timestamp": "2025-12-24T11:32:59.660196+00:00", "meta": {"OBJECT_NAME": "SCD 2", "OBJECT_ID": "1998-060A", "EPOCH": "2025-12-23T23:01:37.909056", "MEAN_MOTION": 14.4542914, "ECCENTRICITY": 0.0017059, "INCLINATION": 24.9953, "RA_OF_ASC_NODE": 72.7138, "ARG_OF_PERICENTER": 71.7341, "MEAN_ANOMALY": 89.7798, "EPHEMERIS_TYPE": 0, "CLASSIFICATION_TYPE": "U", "NORAD_CAT_ID": 25504, "ELEMENT_SET_NO": 999, "REV_AT_EPOCH": 43494, "BSTAR": 6.9047e-05, "MEAN_MOTION_DOT": 4.29e-06, "MEAN_MOTION_DDOT": 0}, "tle": {"line1": "1 25504U 98060A   25357.95946654  .00000429  00000+0  69047-4 0  9993", "line2": "2 25504  24.9953  72.7138 0017059  71.7341  89.7798 14.45429140434949"}}, "geometry": {"type": "Point", "coordinates": [71.21093004752672, 0.7978026068818472]}}, {"type": "Feature", "properties": {"norad_id": 25757, "name": "DLR-TUBSAT", "group": "resource", "lat": -2.281248582202732, "lon": 163.0095637256028, "alt_km": 712.0872048645733, "timestamp": "2025-12-24T11:32:59.660209+00:00", "meta": {"OBJECT_NAME": "DLR-TUBSAT", "OBJECT_ID": "1999-029B", "EPOCH": "2025-12-17T13:22:10.787520", "MEAN_MOTION": 14.52359578, "ECCENTRICITY": 0.00141996, "INCLINATION": 98.6566, "RA_OF_ASC_NODE": 336.2196, "ARG_OF_PERICENTER": 177.8976, "MEAN_ANOMALY": 182.2281, "EPHEMERIS_TYPE": 0, "CLASSIFICATION_TYPE": "U", "NORAD_CAT_ID": 25757, "ELEMENT_SET_NO": 999, "REV_AT_EPOCH": 40688, "BSTAR": 3.7650132e-05, "MEAN_MOTION_DOT": 1.05e-06, "MEAN_MOTION_DDOT": 0}, "tle": {"line1": "1 25757U 99029B   25351.55706930  .00000105  00000+0  37650-4 0  9996", "line2": "2 25757  98.6566 336.2196 0014199 177.8976 182.2281 14.52359578406886"}}, "geometry": {"type": "Point", "coordinates": [163.0095637256028, -2.281248582202732]}}, {"type": "Feature", "properties": {"norad_id": 25994, "name": "TERRA", "group": "resource", "lat": -64.34546965559237, "lon": -147.23279634509987, "alt_km": 699.863210690738, "timestamp": "2025-12-24T11:32:59.660222+00:00", "meta": {"OBJECT_NAME": "TERRA", "OBJECT_ID": "1999-068A", "EPOCH": "2025-12-24T02:28:24.140352", "MEAN_MOTION": 14.60914122, "ECCENTRICITY": 0.0003449, "INCLINATION": 97.9732, "RA_OF_ASC_NODE": 49.3697, "ARG_OF_PERICENTER": 72.0027, "MEAN_ANOMALY": 345.6591, "EPHEMERIS_TYPE": 0, "CLASSIFICATION_TYPE": "U", "NORAD_CAT_ID": 25994, "ELEMENT_SET_NO": 999, "REV_AT_EPOCH": 38404, "BSTAR": 0.00010478, "MEAN_MOTION_DOT": 4.68e-06, "MEAN_MOTION_DDOT": 0}, "tle": {"line1": "1 25994U 99068A   25358.10305718  .00000468  00000+0  10478-3 0  9999", "line2": "2 25994  97.9732  49.3697 0003449  72.0027 345.6591 14.60914122384046"}}, "geometry": {"type": "Point", "coordinates": [-147.23279634509987, -64.34546965559237]}}, {"type": "Feature", "properties": {"norad_id": 27004, "name": "MAROC-TUBSAT", "group": "resource", "lat": 9.008319042834026, "lon": 165.5630377017093, "alt_km": 1011.1222230940893, "timestamp": "2025-12-24T11:32:59.660235+00:00", "meta": {"OBJECT_NAME": "MAROC-TUBSAT", "OBJECT_ID": "2001-056D", "EPOCH": "2025-12-24T03:18:19.001088", "MEAN_MOTION": 13.70253444, "ECCENTRICITY": 0.0019245, "INCLINATION": 99.7916, "RA_OF_ASC_NODE": 166.7824, "ARG_OF_PERICENTER": 229.9491, "MEAN_ANOMALY": 245.4589, "EPHEMERIS_TYPE": 0, "CLASSIFICATION_TYPE": "U", "NORAD_CAT_ID": 27004, "ELEMENT_SET_NO": 999, "REV_AT_EPOCH": 20221, "BSTAR": 2.1662e-05, "MEAN_MOTION_DOT": -2.8e-07, "MEAN_MOTION_DDOT": 0}, "tle": {"line1": "1 27004U 01056D   25358.13771992 -.00000028  00000+0  21662-4 0  9998", "line2": "2 27004  99.7916 166.7824 0019245 229.9491 245.4589 13.70253444202214"}}, "geometry": {"type": "Point", "coordinates": [165.5630377017093, 9.008319042834026]}}, {"type": "Feature", "properties": {"norad_id": 27424, "name": "AQUA", "group": "resource", "lat": 20.20296503024612, "lon": 142.67107308976472, "alt_km": 686.661383747065, "timestamp": "2025-12-24T11:32:59.660247+00:00", "meta": {"OBJECT_NAME": "AQUA", "OBJECT_ID": "2002-022A", "EPOCH": "2025-12-23T20:08:03.450912", "MEAN_MOTION": 14.61824731, "ECCENTRICITY": 0.00015094, "INCLINATION": 98.4053, "RA_OF_ASC_NODE": 318.8992, "ARG_OF_PERICENTER": 108.9448, "MEAN_ANOMALY": 272.2576, "EPHEMERIS_TYPE": 0, "CLASSIFICATION_TYPE": "U", "NORAD_CAT_ID": 27424, "ELEMENT_SET_NO": 999, "REV_AT_EPOCH": 25765, "BSTAR": 0.00020597954, "MEAN_MOTION_DOT": 9.8e-06, "MEAN_MOTION_DDOT": 0}, "tle": {"line1": "1 27424U 02022A   25357.83892883  .00000980  00000+0  20598-3 0  9999", "line2": "2 27424  98.4053 318.8992 0001509 108.9448 272.2576 14.61824731257652"}}, "geometry": {"type": "Point", "coordinates": [142.67107308976472, 20.20296503024612]}}, {"type": "Feature", "properties": {"norad_id": 28051, "name": "IRS-P6 (RESOURCESAT-1)", "group": "resource", "lat": 16.211434605303715, "lon": 35.935688832541985, "alt_km": 801.1849627224465, "timestamp": "2025-12-24T11:32:59.660259+00:00", "meta": {"OBJECT_NAME": "IRS-P6 (RESOURCESAT-1)", "OBJECT_ID": "2003-046A", "EPOCH": "2025-12-24T05:08:20.084640", "MEAN_MOTION": 14.36079416, "ECCENTRICITY": 0.0064853, "INCLINATION": 98.2159, "RA_OF_ASC_NODE": 38.0885, "ARG_OF_PERICENTER": 146.4157, "MEAN_ANOMALY": 290.4542, "EPHEMERIS_TYPE": 0, "CLASSIFICATION_TYPE": "U", "NORAD_CAT_ID": 28051, "ELEMENT_SET_NO": 999, "REV_AT_EPOCH": 15541, "BSTAR": 3.9293e-05, "MEAN_MOTION_DOT": 7.6e-07, "MEAN_MOTION_DDOT": 0}, "tle": {"line1": "1 28051U 03046A   25358.21412135  .00000076  00000+0  39293-4 0  9993", "line2": "2 28051  98.2159  38.0885 0064853 146.4157 290.4542 14.36079416155411"}}, "geometry": {"type": "Point", "coordinates": [35.935688832541985, 16.211434605303715]}}, {"type": "Feature", "properties": {"norad_id": 28220, "name": "SHIYAN-1 (SY-1)", "group": "resource", "lat": -2.719538947700389, "lon": -119.66382983718559, "alt_km": 484.13153539955783, "timestamp": "2025-12-24T11:32:59.660278+00:00", "meta": {"OBJECT_NAME": "SHIYAN-1 (SY-1)", "OBJECT_ID": "2004-012A", "EPOCH": "2025-12-24T02:53:48.173280", "MEAN_MOTION": 15.28429597, "ECCENTRICITY": 0.0005127, "INCLINATION": 97.8916, "RA_OF_ASC_NODE": 60.3318, "ARG_OF_PERICENTER": 277.5215, "MEAN_ANOMALY": 82.5441, "EPHEMERIS_TYPE": 0, "CLASSIFICATION_TYPE": "U", "NORAD_CAT_ID": 28220, "ELEMENT_SET_NO": 999, "REV_AT_EPOCH": 18430, "BSTAR": 0.00052439, "MEAN_MOTION_DOT": 0.00014449, "MEAN_MOTION_DDOT": 0}, "tle": {"line1": "1 28220U 04012A   25358.12069645  .00014449  00000+0  52439-3 0  9994", "line2": "2 28220  97.8916  60.3318 0005127 277.5215  82.5441 15.28429597184303"}}, "geometry": {"type": "Point", "coordinates": [-119.66382983718559, -2.719538947700389]}}, {"type": "Feature", "properties": {"norad_id": 28376, "name": "AURA", "group": "resource", "lat": -72.37140471087179, "lon": 101.34228856853744, "alt_km": 698.2935906016173, "timestamp": "2025-12-24T11:32:59.660299+00:00", "meta": {"OBJECT_NAME": "AURA", "OBJECT_ID": "2004-026A", "EPOCH": "2025-12-24T03:48:51.355008", "MEAN_MOTION": 14.60971548, "ECCENTRICITY": 0.0001421, "INCLINATION": 98.3202, "RA_OF_ASC_NODE": 308.4396, "ARG_OF_PERICENTER": 91.2354, "MEAN_ANOMALY": 268.9009, "EPHEMERIS_TYPE": 0, "CLASSIFICATION_TYPE": "U", "NORAD_CAT_ID": 28376, "ELEMENT_SET_NO": 999, "REV_AT_EPOCH": 14065, "BSTAR": 0.0002176, "MEAN_MOTION_DOT": 1.019e-05, "MEAN_MOTION_DDOT": 0}, "tle": {"line1": "1 28376U 04026A   25358.15892772  .00001019  00000+0  21760-3 0  9991", "line2": "2 28376  98.3202 308.4396 0001421  91.2354 268.9009 14.60971548140652"}}, "geometry": {"type": "Point", "coordinates": [101.34228856853744, -72.37140471087179]}}]}